,Facility Name,Categories,Zipcode,Lat,Lng
0,Presbyterian / Saint Luke's Medical Center,"['building', 'building.healthcare', 'healthcare', 'healthcare.hospital']",80218,39.74715715000001,-104.96709668893541
1,AdventHealth Parker Hospital,"['healthcare', 'healthcare.hospital']",80138,39.548590149999995,-104.76909222943029
2,The Medical Center Of Aurora,"['healthcare', 'healthcare.hospital']",80012,39.69024745,-104.83214374884406
3,Porter Adventist Hospital,"['healthcare', 'healthcare.hospital']",80210,39.6699704,-104.97588317820552
4,Swedish Medical Center,"['healthcare', 'healthcare.hospital']",80113,39.6542801,-104.98121539103656
5,Littleton Adventist Hospital,"['healthcare', 'healthcare.hospital']",80122,39.5755567,-104.9858838118169
6,Denver Health Medical Center,"['healthcare', 'healthcare.hospital']",80204,39.7273281,-104.99120845393924
7,HealthOne Rose Medical Center,"['healthcare', 'healthcare.hospital']",80220,39.7316371,-104.9334075214867
8,Lutheran Medical Center,"['healthcare', 'healthcare.hospital']",80033,39.76569225,-105.0899229640259
9,The Hashimoto's Fix,['healthcare'],80231,39.6557214,-104.902967
10,UCHealth Emergency Room & Primary Care,"['building', 'building.healthcare', 'healthcare', 'healthcare.hospital']",80126,39.544216250000005,-104.94463859978272
11,UCHealth Emergency Room - Thornton,"['building', 'building.healthcare', 'healthcare', 'healthcare.clinic_or_praxis']",80241,39.91484455,-104.93979943206841
12,Sky Ridge Medical Center,"['healthcare', 'healthcare.hospital', 'wheelchair', 'wheelchair.yes']",80124,39.52894535,-104.8713302471549
13,"Children's Hospital Colorado Therapy Care, Broomfield","['building', 'building.healthcare', 'healthcare', 'healthcare.clinic_or_praxis']",80021,39.90647095,-105.09166359298968
14,Brighton Modern Dentistry and Orthodontics,"['building', 'building.healthcare', 'healthcare', 'healthcare.dentist']",80601,39.95839445,-104.77937091424221
15,Children's Hospital Colorado Orthopedic Care,"['building', 'building.healthcare', 'healthcare', 'healthcare.clinic_or_praxis']",80112,39.5736043,-104.88385423980098
16,After Ours Urgent Care,"['building', 'building.healthcare', 'building.office', 'healthcare', 'healthcare.clinic_or_praxis']",80224,39.65352705,-104.90948849985284
17,Platte Valley Medical Center,"['healthcare', 'healthcare.hospital']",80601,39.964003000000005,-104.76888807654464
18,Advanced Urgent Care & Occupational Medicine,"['building', 'building.healthcare', 'healthcare', 'healthcare.clinic_or_praxis', 'wheelchair', 'wheelchair.yes']",80601,39.97648415,-104.78925802505273
19,Hampden Family Dental,"['building', 'building.healthcare', 'building.office', 'healthcare', 'healthcare.dentist']",80224,39.65267595,-104.90720302501327
20,Park Hill Family Health Center,"['building', 'building.commercial', 'building.healthcare', 'healthcare', 'healthcare.clinic_or_praxis']",80207,39.76408565,-104.92968615763081
21,SCL Health Lutheran Medical Center,"['building', 'building.healthcare', 'healthcare', 'healthcare.hospital']",80033,39.767992449999994,-105.0905785975695
22,Rocky Mountain Urgent Care,"['building', 'building.healthcare', 'building.office', 'healthcare', 'healthcare.clinic_or_praxis']",80015,39.60961815,-104.75070889668174
23,"Children's Hospital Colorado Anschutz Medical Campus, Aurora","['building', 'building.healthcare', 'healthcare', 'healthcare.hospital']",80045,39.742181849999994,-104.83481569710175
24,Walgreens,"['building', 'building.commercial', 'building.healthcare', 'commercial.health_and_beauty', 'commercial.health_and_beauty.pharmacy', 'healthcare', 'healthcare.pharmacy']",80260,39.88460585,-105.02390273613659
25,Children's Hospital Colorado Uptown Denver,"['building', 'building.healthcare', 'healthcare', 'healthcare.clinic_or_praxis.paediatrics', 'healthcare.hospital']",80218,39.745184949999995,-104.96783984847397
26,Good Samaritan Medical Center,"['healthcare', 'healthcare.hospital']",80026,39.96976445,-105.08660463304719
27,Avista Adventist Campus,"['healthcare', 'healthcare.hospital']",80027,39.951636300000004,-105.15189102208683
28,Saint Anthony North Health Campus,"['healthcare', 'healthcare.hospital']",80023,39.9554252,-104.9913966608369
29,UCHealth Emergency Room - Aurora Central,"['healthcare', 'healthcare.clinic_or_praxis']",80017,39.6961262,-104.809157975
30,University of Colorado Hospital,"['healthcare', 'healthcare.hospital']",80045,39.7425435,-104.841661
31,Southlands Emergency Room,"['building', 'building.commercial', 'building.healthcare', 'healthcare', 'healthcare.clinic_or_praxis']",80016,39.603978,-104.7117956710855
32,SCL Health Community Hospital - Northglenn,"['healthcare', 'healthcare.hospital']",80233,39.9124158,-104.98400219532053
33,"Children's Hospital Colorado North Campus, Broomfield","['healthcare', 'healthcare.hospital']",80023,40.00287145,-104.9932181373564
34,North Suburban Medical Center,"['healthcare', 'healthcare.hospital']",80229,39.8645116,-104.9859948316301
35,84th Avenue Neighborhood Health Center,"['healthcare', 'healthcare.hospital']",80031,39.850966549999995,-105.01863449924492
36,Centennial Medical Plaza,"['healthcare', 'healthcare.hospital']",80112,39.59358775,-104.82334676923361
37,National Jewish Health,"['healthcare', 'healthcare.hospital', 'wheelchair', 'wheelchair.yes']",80206,39.73920955,-104.94237787754633
38,"Children's Hospital Colorado South Campus, Highlands Ranch","['healthcare', 'healthcare.clinic_or_praxis.paediatrics', 'healthcare.hospital']",80129,39.55710325,-105.01060213125658
39,UCHealth Emergency Room - Parker,"['building', 'building.commercial', 'building.healthcare', 'healthcare', 'healthcare.clinic_or_praxis']",80134,39.5337198,-104.7905132265306
40,AFC Urgent Care,"['building', 'building.commercial', 'building.healthcare', 'healthcare', 'healthcare.clinic_or_praxis']",80121,39.607369,-104.95969105312041
41,Craig Hospital,"['healthcare', 'healthcare.hospital']",80113,39.6542801,-104.97835816740127
42,Denver Veterans Affairs Medical Center,"['healthcare', 'healthcare.hospital']",80220,39.73241835,-104.93632528953108
43,Aspen Dental,"['healthcare', 'healthcare.dentist']",80401,39.7342629,-105.159698
44,Walgreens,"['building', 'building.commercial', 'building.healthcare', 'commercial.health_and_beauty', 'commercial.health_and_beauty.pharmacy', 'healthcare', 'healthcare.pharmacy', 'wheelchair', 'wheelchair.yes']",80215,39.73954755,-105.11154804608096
45,Walgreens,"['commercial.health_and_beauty', 'commercial.health_and_beauty.pharmacy', 'healthcare', 'healthcare.pharmacy']",80013,39.6536989,-104.7732414
46,Lakewood Modern Dentistry,"['healthcare', 'healthcare.dentist']",80226,39.7067798,-105.081995
47,Concentra Urgent Care,"['healthcare', 'healthcare.clinic_or_praxis']",80247,39.6754177,-104.866972
48,Safeway,"['commercial.health_and_beauty', 'commercial.health_and_beauty.pharmacy', 'healthcare', 'healthcare.pharmacy']",80012,39.6864917,-104.868598
49,Bright Now! Dental,"['healthcare', 'healthcare.dentist']",80003,39.84105613363057,-105.08194803316503
50,OnPoint Urgent Care,"['healthcare', 'healthcare.clinic_or_praxis']",80129,39.5494026,-104.9981278
51,Walgreens,"['commercial.health_and_beauty', 'commercial.health_and_beauty.pharmacy', 'healthcare', 'healthcare.pharmacy']",80210,39.6795108,-104.972635
52,Gianna's Angels Day Program,['healthcare'],80014,39.6671235,-104.864375
53,Safeway,"['commercial.health_and_beauty', 'commercial.health_and_beauty.pharmacy', 'healthcare', 'healthcare.pharmacy']",80230,39.7201357,-104.900975
54,Target Pharmacy,"['commercial.health_and_beauty', 'commercial.health_and_beauty.pharmacy', 'healthcare', 'healthcare.pharmacy']",80247,39.6916319,-104.863299
55,First Choice Emergency Room,"['healthcare', 'healthcare.clinic_or_praxis']",80023,39.9437289,-104.99864
56,"Children's Hospital Colorado KidStreet, Denver","['healthcare', 'healthcare.clinic_or_praxis']",80205,39.7625969,-104.9442097
57,"Children's Hospital Colorado at Parker Adventist Hospital, Emergency Care, Parker","['healthcare', 'healthcare.clinic_or_praxis.paediatrics', 'healthcare.hospital']",80138,39.5479351,-104.7699255
58,"Children's Hospital Colorado Outpatient Specialty Care, Parker","['healthcare', 'healthcare.clinic_or_praxis']",80138,39.5483753,-104.769271
59,"Children's Hospital Colorado Urgent and Outpatient Specialty Care, Wheat Ridge","['healthcare', 'healthcare.clinic_or_praxis']",80033,39.7658784,-105.0891932
60,Denver Health Eastside Family Health Center,"['healthcare', 'healthcare.clinic_or_praxis']",80205,39.755596,-104.9756916
61,Denver Health Medical Center Emergency Department Trauma Center,"['healthcare', 'healthcare.hospital']",80204,39.7284644,-104.990709
62,Denver Health Medical Emergency Center for Children,"['healthcare', 'healthcare.clinic_or_praxis.paediatrics', 'healthcare.hospital']",80204,39.7276558,-104.9910818
63,Planned Parenthood (Denver Central),"['healthcare', 'healthcare.clinic_or_praxis']",80218,39.7386405,-104.975779
64,King Soopers,"['commercial.health_and_beauty', 'commercial.health_and_beauty.pharmacy', 'healthcare', 'healthcare.pharmacy']",80204,39.7374033,-104.9983988
65,Sam Sandos Westside Family Health Center,"['healthcare', 'healthcare.clinic_or_praxis']",80204,39.7344213,-105.024256
66,Iora Primary Care,"['healthcare', 'healthcare.clinic_or_praxis']",80012,39.6973941,-104.818853
67,Walmart Pharmacy,"['commercial.health_and_beauty', 'commercial.health_and_beauty.pharmacy', 'healthcare', 'healthcare.pharmacy']",80014,39.6732855,-104.811562
68,Nouvelle Dentistry,"['healthcare', 'healthcare.dentist']",80111,39.6224425,-104.895192
69,DenTal avera,"['healthcare', 'healthcare.dentist']",80214,39.7437021,-105.0810019
70,Delicate Smiles Dental,"['healthcare', 'healthcare.dentist']",80601,39.9864968,-104.800848
71,Delicate Smiles Dental,"['healthcare', 'healthcare.dentist']",80011,39.7261572,-104.786384
72,Safeway,"['commercial.health_and_beauty', 'commercial.health_and_beauty.pharmacy', 'healthcare', 'healthcare.pharmacy']",80013,39.6515087,-104.769965
73,"Children's Hospital Colorado Therapy Care, Highlands Ranch","['healthcare', 'healthcare.clinic_or_praxis']",80129,39.5500547,-104.9971494
74,King Soopers Pharmacy,"['commercial.health_and_beauty', 'commercial.health_and_beauty.pharmacy', 'healthcare', 'healthcare.pharmacy']",80111,39.6079858,-104.920705
75,"Children's Hospital Colorado Urgent Care, Wheat Ridge","['healthcare', 'healthcare.clinic_or_praxis']",80033,39.7656508,-105.0894505
76,"Robinson Cosmetic Surgery, LLC","['healthcare', 'healthcare.clinic_or_praxis']",80124,39.5399827,-104.8714735
77,Allergy Asthma & Sinus Center,"['healthcare', 'healthcare.clinic_or_praxis', 'wheelchair', 'wheelchair.yes']",80226,39.7067289,-105.082832
78,Boulder Valley Center for Dermatology,"['healthcare', 'healthcare.clinic_or_praxis']",80601,39.9646483,-104.7685781
79,Boulder Valley Center for Dermatology,"['healthcare', 'healthcare.clinic_or_praxis']",80026,39.9865938,-105.106088
80,Ballen Medical & Wellness,['healthcare'],80111,39.606317,-104.904485
81,Dentists of Greenwood,"['healthcare', 'healthcare.dentist']",80111,39.6255334,-104.883522
82,Cody Dental Group,"['healthcare', 'healthcare.dentist']",80222,39.6657344,-104.9365963
83,Kids Mile High Pediatric Dentistry,"['healthcare', 'healthcare.dentist']",80112,39.5787077,-104.8657212
84,SCL Health Saint Joseph Hospital,"['healthcare', 'healthcare.hospital']",80218,39.7461762,-104.9710857
85,King Soopers Pharmacy,"['commercial.health_and_beauty', 'commercial.health_and_beauty.pharmacy', 'healthcare', 'healthcare.pharmacy']",80224,39.7010741,-104.911365
86,Eagle Eyecare,"['healthcare', 'healthcare.clinic_or_praxis', 'healthcare.clinic_or_praxis.ophthalmology']",80227,39.6545624,-105.0821799
87,Lincoln Center Dental,"['healthcare', 'healthcare.dentist']",80112,39.5368994,-104.844351
88,Ridgeview Dental,"['healthcare', 'healthcare.dentist']",80015,39.6143856,-104.7562709
89,Family Medicine Of The Rockies,"['healthcare', 'healthcare.clinic_or_praxis']",80012,39.6933739,-104.863961
90,Rocky Mountain Acupuncture - Beth Bright,['healthcare'],80033,39.7782995,-105.0820563
91,Signature Smiles Dentistry,"['healthcare', 'healthcare.dentist', 'wheelchair', 'wheelchair.yes']",80134,39.5589769,-104.7830287
92,"Lisha Barre MD, LLC","['healthcare', 'healthcare.clinic_or_praxis']",80003,39.8394656,-105.078518
93,Continuum Autism Spectrum Alliance Denver,"['healthcare', 'healthcare.clinic_or_praxis']",80235,39.6494637,-105.0775693
94,Jing Japanese Acupuncture - Patti Polman,['healthcare'],80211,39.7768769,-105.0344618
95,Vision Care Specialists,['healthcare'],80265,39.7479443,-104.9941643
96,Ritualcravt,['healthcare'],80211,39.7764924,-105.0233463
97,"Dr. Andrew N. Fedorowicz, MD","['healthcare', 'healthcare.clinic_or_praxis']",80111,39.62006,-104.9021734
98,Morrow Chiropractic LLC,['healthcare'],80134,39.5321917,-104.7955252
99,Towncenter Dentistry and Orthodontics,"['healthcare', 'healthcare.dentist']",80238,39.758370044388144,-104.9007602997462
100,PrimeHealth,"['healthcare', 'healthcare.clinic_or_praxis']",80202,39.7421703,-104.9870571
101,The Child Health Clinic at Childrenâ€™s Hospital Colorado,"['healthcare', 'healthcare.clinic_or_praxis']",80011,39.7397795,-104.835817
102,Dr. David L. Dahlhauser,['healthcare'],80224,39.6772889,-104.9089622
103,AFC Urgent Care,"['healthcare', 'healthcare.clinic_or_praxis']",80026,39.9872672,-105.125068
104,Comfort Dental,"['healthcare', 'healthcare.dentist']",80214,39.7405134,-105.079534
105,Colorado In-Home Counseling,['healthcare'],80222,39.6803521,-104.9397057
106,Comfort Dental,"['healthcare', 'healthcare.dentist']",80010,39.7405552,-104.866804
107,Comfort Dental,"['healthcare', 'healthcare.dentist']",80229,39.8525816,-104.976882
108,Comfort Dental,"['healthcare', 'healthcare.dentist']",80126,39.5671633,-104.907528
109,The Raleigh House,['healthcare'],80002,39.7897933,-105.073198
110,AFC Urgent Care,"['healthcare', 'healthcare.clinic_or_praxis']",80246,39.7027448,-104.940246
111,GVR Dental and Orthodontics,"['healthcare', 'healthcare.dentist']",80249,39.7871356,-104.771693
112,Southeast Family Chiropractic,"['healthcare', 'healthcare.clinic_or_praxis']",80015,39.6374071,-104.8275596
113,Planned Parenthood,"['healthcare', 'healthcare.clinic_or_praxis']",80012,39.6930829,-104.827803
114,The Edge Chiropractic Center,['healthcare'],80112,39.54048,-104.8570572
115,Clear Smile Dental Care,"['healthcare', 'healthcare.dentist']",80122,39.5792478,-104.959228
116,Miyamoto Family Dental,"['healthcare', 'healthcare.dentist']",80014,39.6724059,-104.8668584
117,The Women's Imaging Center - Centennial,['healthcare'],80015,39.6118015,-104.7516178
118,Harvard Park Surgery Center,"['healthcare', 'healthcare.clinic_or_praxis', 'wheelchair', 'wheelchair.yes']",80210,39.6707777,-104.9755381
119,AFC Urgent Care,"['healthcare', 'healthcare.clinic_or_praxis']",80012,39.6946131,-104.8648973
120,Denver Audiology,['healthcare'],80206,39.7174589,-104.94587
121,Park Hill Dental Arts,"['healthcare', 'healthcare.dentist']",80207,39.7509412,-104.9332226
122,CVS Pharmacy,"['commercial.health_and_beauty', 'commercial.health_and_beauty.pharmacy', 'healthcare', 'healthcare.pharmacy']",80237,39.6525224,-104.8992437
123,Zinnia Healing Denver,"['healthcare', 'healthcare.clinic_or_praxis']",80246,39.7004575,-104.9361546
124,Zinnia Healing Denver,"['healthcare', 'healthcare.clinic_or_praxis']",80227,39.6742277,-105.0603145
125,The Relationship Center of Colorado,['healthcare'],80232,39.6817254,-105.0804441
126,Omdera Pharmacy,"['commercial.health_and_beauty', 'commercial.health_and_beauty.pharmacy', 'healthcare', 'healthcare.pharmacy']",80012,39.693096,-104.8303514
127,Dr. Emily Baker & Associates PC,['healthcare'],80021,39.9256525,-105.1358511
128,Collective Counseling Solutions,"['healthcare', 'office']",80209,39.7141703,-104.9465663
129,Action Behavior Centers - ABA Therapy for Autism,['healthcare'],80013,39.6547831,-104.7695663
130,First Care Primary Clinic,"['healthcare', 'healthcare.clinic_or_praxis']",80112,39.5946188,-104.8399003
131,Comfort Dental,"['building', 'building.healthcare', 'healthcare', 'healthcare.dentist']",80110,39.6662573,-104.98715118844709
132,Community Medical Center,"['building', 'building.healthcare', 'healthcare']",80026,39.986449750000006,-105.10260730573586
133,Walgreens,"['building', 'building.commercial', 'building.healthcare', 'commercial.health_and_beauty', 'commercial.health_and_beauty.pharmacy', 'healthcare', 'healthcare.pharmacy']",80014,39.675263,-104.84813286857806
134,Platte Valley Medical Center,"['building', 'building.healthcare', 'healthcare', 'healthcare.hospital', 'wheelchair', 'wheelchair.yes']",80601,39.9646492,-104.76850913685536
135,Kaiser Permanente,"['building', 'building.commercial', 'building.healthcare', 'building.office', 'healthcare', 'healthcare.clinic_or_praxis']",80129,39.547636999999995,-105.0044162
136,Northeast Emergency Room,"['building', 'building.healthcare', 'healthcare', 'healthcare.hospital']",80602,39.92785635,-104.92318276581395
137,Salud Family Health Center,"['building', 'building.healthcare', 'healthcare', 'healthcare.hospital']",80022,39.8103359,-104.90410230260574
138,Hampden Family Dentistry & Orthodontics,"['building', 'building.healthcare', 'building.office', 'healthcare', 'healthcare.dentist']",80231,39.65249395,-104.88053139918631
139,Southeast Denver Dental,"['building', 'building.healthcare', 'building.office', 'healthcare', 'healthcare.dentist']",80222,39.66822555,-104.91249020000001
140,Metro Community Providers North Aurora Family Health Services,"['building', 'building.healthcare', 'building.office', 'healthcare', 'healthcare.hospital']",80010,39.76366555,-104.84539646769706
141,Perfect Teeth,"['building', 'building.healthcare', 'building.office', 'healthcare', 'healthcare.dentist']",80222,39.677606850000004,-104.91334435
142,Children's Hospital Colorado Emergency Department (ED),"['building', 'building.healthcare', 'building.office', 'healthcare', 'healthcare.hospital']",80045,39.7422167,-104.83615269377671
143,Anschutz Inpatient Pavilion 2 & Emergency Department (University Hospital),"['building', 'building.healthcare', 'building.office', 'healthcare', 'healthcare.hospital']",80045,39.74233255,-104.8425537964631
144,UCH Center for Dependency Addiction & Rehabilitation (CeDAR),"['healthcare', 'healthcare.hospital']",80045,39.7428247,-104.84582265555555
145,Marion Downs Hearing Center,"['healthcare', 'healthcare.hospital']",80045,39.74451965,-104.84496809931883
146,Kids Choice Dental & Braces,"['building', 'building.healthcare', 'building.office', 'healthcare', 'healthcare.dentist']",80222,39.675945299999995,-104.91237463750029
147,Denver Health Montbello Community Health Center,"['building', 'building.healthcare', 'building.office', 'healthcare', 'healthcare.hospital']",80239,39.781270449999994,-104.84381480150383
148,Flatirons Family Dental & Orthodontics,"['healthcare', 'healthcare.dentist']",80027,39.929150050000004,-105.149713525
149,Associates in Family Dentistry,"['building', 'building.healthcare', 'building.office', 'healthcare', 'healthcare.dentist']",80017,39.67481262829825,-104.80771542156376
150,Walgreens,"['building', 'building.commercial', 'building.healthcare', 'commercial.health_and_beauty', 'commercial.health_and_beauty.pharmacy', 'healthcare', 'healthcare.pharmacy']",80204,39.7407376,-105.05245856959661
151,Tennyson Center for Children at Colorado Christian Home,"['healthcare', 'healthcare.hospital']",80212,39.7594523,-105.0434853
152,HealthONE Behavioral Health and Wellness Outpatient Services at Saddle Rock,"['building', 'building.commercial', 'building.healthcare', 'healthcare', 'healthcare.clinic_or_praxis', 'healthcare.clinic_or_praxis.psychiatry']",80016,39.5796634,-104.72610985773203
153,Vibra Hospital of Denver,"['healthcare', 'healthcare.hospital']",80229,39.850476,-104.98039788235249
154,Colorado Acute Long Term Hospital,"['healthcare', 'healthcare.hospital']",80204,39.74334935,-105.03581114088212
155,Redstone Dental Group,"['building', 'building.healthcare', 'healthcare', 'healthcare.dentist']",80129,39.548775750000004,-105.00358085309716
156,Saint Anthony Medical Campus,"['healthcare', 'healthcare.hospital']",80228,39.7144552,-105.12949034818877
157,Saint Anthony Hospital,"['building', 'building.healthcare', 'healthcare', 'healthcare.hospital']",80228,39.71625455,-105.12909439976605
158,OrthoColorado Hospital,"['building', 'building.healthcare', 'healthcare', 'healthcare.hospital']",80228,39.717096,-105.12920259365032
159,Century Cancer Centers - Denver,"['building', 'building.healthcare', 'healthcare', 'healthcare.hospital']",80111,39.6210277,-104.89822477365115
160,Memory Care at The Gardens,"['building', 'building.healthcare', 'building.residential', 'healthcare', 'healthcare.hospital']",80231,39.671983,-104.86805214212987
161,Saint Paul Health Center,"['building', 'building.healthcare', 'building.office', 'healthcare', 'healthcare.hospital']",80206,39.7430947,-104.95159905181083
162,HealthOne Spalding Rehabilitation Hospital,"['healthcare', 'healthcare.hospital']",80011,39.73112295,-104.82741099969513
163,The Medical Center of Aurora-North Campus,"['healthcare', 'healthcare.hospital']",80011,39.727851349999995,-104.82716869816615
164,UCHealth Broomfield Hospital,"['healthcare', 'healthcare.hospital']",80021,39.91038845,-105.09144960911036
165,Rocky Mountain Regional VA Medical Center (RMR VAMC),"['healthcare', 'healthcare.hospital']",80045,39.74341275,-104.82970654894001
166,PAM Health Rehabilitation Hospital of Golden,"['building', 'building.healthcare', 'healthcare']",80401,39.72719705,-105.20473649330827
167,Clinica Family Health,"['building', 'building.healthcare', 'healthcare', 'healthcare.clinic_or_praxis']",80026,39.98294185,-105.09134776796516
168,Secora Family Dentistry,"['building', 'building.healthcare', 'healthcare', 'healthcare.dentist']",80123,39.5941513,-105.07030295645336
169,Denver Springs,"['healthcare', 'healthcare.clinic_or_praxis.psychiatry', 'healthcare.hospital']",80112,39.556811499999995,-104.82763116291075
170,Comfort Dental,"['building', 'building.healthcare', 'healthcare', 'healthcare.dentist']",80601,39.97278315,-104.8193355
171,NextCare Urgent Care,"['building', 'building.healthcare', 'healthcare', 'healthcare.clinic_or_praxis']",80229,39.87284215,-104.9816029120931
172,Avamere Transitional Care and Rehab - Brighton,"['building', 'building.healthcare', 'healthcare']",80601,39.984178,-104.79653601523296
173,Sierra Rehabilitation and Care Community,"['building', 'building.healthcare', 'healthcare']",80214,39.73908055,-105.05756638985045
174,Paradise Dentistry & Orthodontics,"['healthcare', 'healthcare.dentist']",80210,39.6786183,-104.959025
175,Wallgreens,"['commercial.health_and_beauty', 'commercial.health_and_beauty.pharmacy', 'healthcare', 'healthcare.pharmacy']",80222,39.6643392,-104.939893
176,Dental Elements,"['healthcare', 'healthcare.dentist', 'wheelchair', 'wheelchair.yes']",80202,39.7514677,-105.002504
177,Concentra Urgent Care,"['healthcare', 'healthcare.clinic_or_praxis']",80202,39.7516873,-104.997315
178,Walgreens,"['commercial.health_and_beauty', 'commercial.health_and_beauty.pharmacy', 'healthcare', 'healthcare.pharmacy']",80027,39.9693699,-105.1643211
179,Front Range Eye Health Center,"['healthcare', 'healthcare.clinic_or_praxis']",80027,39.991627,-105.1286031
180,Advanced Medical Imaging,"['healthcare', 'healthcare.clinic_or_praxis']",80027,39.9604439,-105.163822
181,Walgreens,"['commercial.health_and_beauty', 'commercial.health_and_beauty.pharmacy', 'healthcare', 'healthcare.pharmacy']",80027,39.9282526,-105.146567
182,King Soopers Pharmacy,"['commercial.health_and_beauty', 'commercial.health_and_beauty.pharmacy', 'healthcare', 'healthcare.pharmacy']",80012,39.6954806,-104.8677977
183,Acupuncture by Christina Fick,['healthcare'],80457,39.6327422,-105.320859
184,Walgreens,"['commercial.health_and_beauty', 'commercial.health_and_beauty.pharmacy', 'healthcare', 'healthcare.pharmacy']",80222,39.6781367,-104.913908
185,Walgreens,"['commercial.health_and_beauty', 'commercial.health_and_beauty.pharmacy', 'healthcare', 'healthcare.pharmacy']",80012,39.7115645,-104.864413
186,20/20 Institute,['healthcare'],80234,39.9145356,-105.003779
187,Walmart Pharmacy,"['commercial.health_and_beauty', 'commercial.health_and_beauty.pharmacy', 'healthcare', 'healthcare.pharmacy']",80231,39.6523199,-104.87858
188,Target Pharmacy,"['commercial.health_and_beauty', 'commercial.health_and_beauty.pharmacy', 'healthcare', 'healthcare.pharmacy']",80231,39.6553228,-104.900434
189,Walgreens,"['commercial.health_and_beauty', 'commercial.health_and_beauty.pharmacy', 'healthcare', 'healthcare.pharmacy', 'wheelchair', 'wheelchair.yes']",80224,39.6527436,-104.905032
190,MHCD Pharmacy,"['commercial.health_and_beauty', 'commercial.health_and_beauty.pharmacy', 'healthcare', 'healthcare.pharmacy']",80220,39.7349304,-104.935218
191,The Denver Hospice,"['healthcare', 'healthcare.hospital']",80230,39.7199008,-104.8919851
192,Safeway,"['commercial.health_and_beauty', 'commercial.health_and_beauty.pharmacy', 'healthcare', 'healthcare.pharmacy']",80210,39.6777191,-104.972116
193,Costco Pharmacy,"['commercial.health_and_beauty', 'commercial.health_and_beauty.pharmacy', 'healthcare', 'healthcare.pharmacy']",80110,39.6441544,-105.006401
194,Pacific Dental Services,"['healthcare', 'healthcare.dentist']",80110,39.646135,-105.008041
195,Dental 911,"['healthcare', 'healthcare.dentist']",80220,39.7290521,-104.937899
196,Kindred Hospital Aurora,"['healthcare', 'healthcare.hospital']",80011,39.7281498,-104.826609
197,Walgreens,"['commercial.health_and_beauty', 'commercial.health_and_beauty.pharmacy', 'healthcare', 'healthcare.pharmacy']",80014,39.6684814,-104.827378
198,Aspenwood Dental Associates,"['healthcare', 'healthcare.dentist']",80014,39.6623334,-104.846696
199,CarePlus CVS Pharmacy,"['commercial.health_and_beauty', 'commercial.health_and_beauty.pharmacy', 'healthcare', 'healthcare.pharmacy']",80045,39.748784590030716,-104.83757463720295
200,Small Smiles Dental,"['healthcare', 'healthcare.dentist']",80011,39.7264273,-104.822028
201,Wellshire Pharmacy,"['commercial.health_and_beauty', 'commercial.health_and_beauty.pharmacy', 'healthcare', 'healthcare.pharmacy']",80222,39.6724986,-104.939518
202,Dayton Dental,"['healthcare', 'healthcare.dentist']",80231,39.6796257,-104.8758963
203,Adventure Dental Vision & Orthodontics,"['healthcare', 'healthcare.dentist']",80012,39.697841,-104.812033
204,Urology Center of Colorado,"['healthcare', 'healthcare.clinic_or_praxis']",80211,39.7484502,-105.021622
205,Gateway Dental,"['healthcare', 'healthcare.dentist']",80012,39.6974726,-104.817115
206,risas Dental and Braces,"['healthcare', 'healthcare.dentist']",80033,39.7700638,-105.081895
207,Aurora Medical Weight Loss,"['healthcare', 'healthcare.clinic_or_praxis']",80014,39.6739186,-104.811554
208,Bright Now! Dental,"['healthcare', 'healthcare.dentist']",80214,39.7405508,-105.082311
209,The Joint Chiropractic,"['healthcare', 'wheelchair', 'wheelchair.yes']",80016,39.5937456,-104.809017
210,Advanced Pediatric Associates,"['healthcare', 'healthcare.clinic_or_praxis']",80015,39.6142345,-104.7545944
211,Denver Physical Therapy,['healthcare'],80202,39.7447509,-104.9907215
212,Walgreens,"['commercial.health_and_beauty', 'commercial.health_and_beauty.pharmacy', 'healthcare', 'healthcare.pharmacy']",80247,39.6990886,-104.9026954
213,Comfort Dental,"['healthcare', 'healthcare.dentist']",80013,39.6766163,-104.7706421
214,Fusion Sport Rehab,['healthcare'],80120,39.5726146,-104.993263
215,Smile Hi Family Dentistry,"['healthcare', 'healthcare.dentist']",80014,39.6611857,-104.848022
216,"Bonnie C. Ferrell, DDS","['healthcare', 'healthcare.dentist']",80230,39.7202674,-104.898939
217,Kids Choice,"['healthcare', 'healthcare.dentist']",80011,39.7414019,-104.8113147
218,Colon and Rectal Clinic of Colorado,"['healthcare', 'healthcare.clinic_or_praxis']",80218,39.7466854,-104.9677442
219,"Lynn Starker Blyth, Ph.D.","['healthcare', 'healthcare.clinic_or_praxis']",80222,39.6834803,-104.9384237
220,Gastroenterology of the Rockies,"['healthcare', 'healthcare.clinic_or_praxis', 'healthcare.clinic_or_praxis.gastroenterology']",80233,39.9123508,-104.9840384
221,Colorado Orthopedic Consultants,"['healthcare', 'healthcare.clinic_or_praxis']",80012,39.6910829,-104.832674
222,King Soopers Pharmacy,"['commercial.health_and_beauty', 'commercial.health_and_beauty.pharmacy', 'healthcare', 'healthcare.pharmacy']",80111,39.6264181,-104.883651
223,Colorado Pain Care,"['healthcare', 'healthcare.clinic_or_praxis']",80222,39.6686061,-104.939594
224,Aspen Dental,"['healthcare', 'healthcare.dentist']",80206,39.7174892,-104.947646
225,Highlands Dental,"['healthcare', 'healthcare.dentist']",80129,39.5358047,-105.014134
226,Northstar Dental,"['healthcare', 'healthcare.dentist']",80401,39.7303385,-105.1290247
227,"303 Dental Group Amy Roberts DDS, PLLC","['healthcare', 'healthcare.dentist']",80129,39.5577879,-104.991976
228,Yang Chinese Acupuncture & Herbs,['healthcare'],80247,39.6755251,-104.868906
229,Foothills Family Practice,"['healthcare', 'healthcare.clinic_or_praxis']",80210,39.6702227,-104.977472
230,Associates of Otolaryngology,"['healthcare', 'healthcare.clinic_or_praxis']",80210,39.6701197,-104.9779708
231,Corson Dentistry,"['healthcare', 'healthcare.dentist']",80222,39.6676537,-104.927297
232,Chiropractic Works North,['healthcare'],80260,39.8486022,-104.9894893
233,"Kim Schurman, MD","['healthcare', 'healthcare.clinic_or_praxis']",80222,39.6744668,-104.9320291
234,Better Health Acupuncture & Chinese Medicine,['healthcare'],80033,39.7726195,-105.0969245
235,Dale W. Hudson D.D.S.,"['healthcare', 'healthcare.dentist']",80231,39.6560576,-104.8674175
236,Kabel Chiropractic,['healthcare'],80129,39.5371127,-105.014036
237,The Fitness LAB,"['healthcare', 'wheelchair', 'wheelchair.yes']",80130,39.5260567,-104.939796
238,CVS Pharmacy,"['commercial.health_and_beauty', 'commercial.health_and_beauty.pharmacy', 'healthcare', 'healthcare.pharmacy']",80129,39.5497391,-105.00493
239,Chiro-One Health Center LLC,['healthcare'],80012,39.6880531,-104.867878
240,Compound Pharmacy & Medical Supply,"['commercial', 'commercial.health_and_beauty', 'commercial.health_and_beauty.medical_supply', 'commercial.health_and_beauty.pharmacy', 'healthcare', 'healthcare.pharmacy']",80012,39.6882253,-104.867888
241,Renew Movement,['healthcare'],80027,39.9801306,-105.1289511
242,One Stop Health Care,"['healthcare', 'healthcare.clinic_or_praxis']",80014,39.6789013,-104.865031
243,Dove Valley Dentistry,"['healthcare', 'healthcare.dentist']",80112,39.5753984,-104.80843
244,King Soopers Pharmacy,"['commercial.health_and_beauty', 'commercial.health_and_beauty.pharmacy', 'healthcare', 'healthcare.pharmacy']",80014,39.6606382,-104.844662
245,Peak Dental Health,"['healthcare', 'healthcare.dentist']",80020,39.9156809,-105.0651697
246,Aurora Village Dental Group,"['healthcare', 'healthcare.dentist']",80231,39.6763543,-104.871557
247,Aurora Dentist Office,"['healthcare', 'healthcare.dentist']",80014,39.6605014,-104.846685
248,L Town Dental,"['healthcare', 'healthcare.dentist']",80026,39.9873798,-105.11833
249,Dental Aid,"['healthcare', 'healthcare.dentist']",80027,39.98698667200678,-105.13262386611622
250,Cherry Creek Modern Dentistry,"['healthcare', 'healthcare.dentist']",80246,39.6961823,-104.940267
251,Walgreens,"['commercial.health_and_beauty', 'commercial.health_and_beauty.pharmacy', 'healthcare', 'healthcare.pharmacy']",80205,39.7666087,-104.941046
252,Hearthside Dentistry,"['healthcare', 'healthcare.dentist']",80023,39.9970542,-104.973895
253,King Soopers,"['commercial.health_and_beauty', 'commercial.health_and_beauty.pharmacy', 'healthcare', 'healthcare.pharmacy']",80020,39.9332807,-105.088101
254,Emergency Foot Care PC,"['healthcare', 'healthcare.clinic_or_praxis']",80113,39.6538364,-104.980473
255,Alto Pharmacy,"['commercial.health_and_beauty', 'commercial.health_and_beauty.pharmacy', 'healthcare', 'healthcare.pharmacy']",80203,39.7312208,-104.9879685
256,Espire Dental,"['healthcare', 'healthcare.dentist']",80237,39.6285919,-104.895303
257,Revive Chiropractic,['healthcare'],80214,39.7473449,-105.0551241
258,The Root Acupuncture,"['healthcare', 'healthcare.hospital']",80228,39.6828034,-105.1560498
259,Valley Modern Dentists,"['healthcare', 'healthcare.dentist']",80015,39.6381297,-104.7910983
260,Southglenn Eyecare,"['healthcare', 'wheelchair', 'wheelchair.yes']",80121,39.5961993,-104.9632515
261,Integrative Health and Rehabilitation,['healthcare'],80212,39.7825098,-105.0618192
262,Reunion Rehabilitation Hospital Denver,"['healthcare', 'healthcare.hospital']",80238,39.7814708,-104.8822514
263,Encompass Health Rehab Hospital Of Littleton,"['healthcare', 'healthcare.hospital']",80120,39.5745418,-105.0000982
264,PAM Health Rehabilitation Hospital of Westminster,"['healthcare', 'healthcare.hospital']",80020,39.8874695,-105.0683388
265,Mountain Top Eyecare,['healthcare'],80026,39.9857207,-105.0971893
266,Pedal Fit PT,['healthcare'],80403,39.7687156,-105.2346677
267,Dentists of Littleton,"['healthcare', 'healthcare.dentist']",80122,39.5834695,-104.9877341
268,Devereux Cleo Wallace,"['healthcare', 'healthcare.clinic_or_praxis.psychiatry', 'healthcare.hospital']",80021,39.882582400000004,-105.09108738696943
269,Walgreens,"['building', 'building.commercial', 'building.healthcare', 'commercial.health_and_beauty', 'commercial.health_and_beauty.pharmacy', 'healthcare', 'healthcare.pharmacy']",80401,39.73841685,-105.19590341458334
270,Walgreens,"['building', 'building.commercial', 'building.healthcare', 'commercial.health_and_beauty', 'commercial.health_and_beauty.pharmacy', 'healthcare', 'healthcare.pharmacy']",80020,39.92258715,-105.09004204553207
271,Highlands Behavioral Health,"['building', 'building.healthcare', 'healthcare', 'healthcare.clinic_or_praxis.psychiatry', 'healthcare.hospital']",80130,39.562801699999994,-104.90767495146322
272,Kaiser Permanente Brighton Medical Offices,"['building', 'building.healthcare', 'building.office', 'healthcare', 'healthcare.clinic_or_praxis']",80601,39.9733361,-104.81875854716307
273,Fillmore Building,"['building', 'building.commercial', 'building.healthcare', 'building.office', 'healthcare', 'healthcare.hospital']",80206,39.742720950000006,-104.95382871086659
274,Advanced Dental on Smoky Hill Road,"['building', 'building.commercial', 'building.healthcare', 'healthcare', 'healthcare.dentist']",80015,39.60902335,-104.74415107882484
275,Dental Center (Dr Phillip Hom),"['building', 'building.healthcare', 'building.office', 'healthcare', 'healthcare.dentist']",80011,39.7291585,-104.84688905
276,Comfort Dental,"['building', 'building.healthcare', 'building.office', 'healthcare', 'healthcare.dentist']",80231,39.653634999999994,-104.88733999975378
277,Clyde Bowden DDS,"['building', 'building.healthcare', 'building.office', 'healthcare', 'healthcare.dentist']",80012,39.71136675,-104.81723600000001
278,Lakewood Family Dentistry,"['building', 'building.healthcare', 'building.office', 'healthcare', 'healthcare.dentist']",80214,39.73828365,-105.08287149441102
279,Kindred Hospital Denver,"['healthcare', 'healthcare.hospital']",80218,39.74628,-104.9644468
280,Community Medical Center,"['healthcare', 'healthcare.clinic_or_praxis']",80026,39.9865296,-105.10263662181006
281,Saint Anthony Medical Plaza 1,"['building', 'building.healthcare', 'healthcare', 'healthcare.hospital']",80228,39.71688505,-105.13002403043645
282,Saint Anthony Medical Plaza 2,"['building', 'building.healthcare', 'healthcare', 'healthcare.hospital']",80228,39.715538699999996,-105.1300262
283,Saint Anthony Medical Plaza 3,"['building', 'building.healthcare', 'healthcare', 'healthcare.hospital']",80228,39.71221405,-105.12996493869943
284,Walgreens,"['building', 'building.commercial', 'building.healthcare', 'commercial.health_and_beauty', 'commercial.health_and_beauty.pharmacy', 'healthcare', 'healthcare.pharmacy']",80260,39.849491,-105.00677453917129
285,Walgreens,"['building', 'building.commercial', 'building.healthcare', 'commercial.health_and_beauty', 'commercial.health_and_beauty.pharmacy', 'healthcare', 'healthcare.pharmacy', 'wheelchair', 'wheelchair.yes']",80013,39.67653555,-104.77133850357887
286,Bridges Health and Wellness,"['building', 'building.healthcare', 'healthcare', 'healthcare.clinic_or_praxis']",80033,39.769020299999994,-105.0876964
287,Highlands Behavioral Health,"['healthcare', 'healthcare.clinic_or_praxis.psychiatry', 'healthcare.hospital']",80130,39.562686799999994,-104.90790666483892
288,Mountain Ridge Dental Care,"['building', 'building.healthcare', 'healthcare', 'healthcare.dentist']",80516,40.00069055,-105.01444794356574
289,University Of Colorado Physicians,"['healthcare', 'healthcare.clinic_or_praxis']",80230,39.7185267,-104.893669
290,CVS Pharmacy,"['building', 'building.commercial', 'building.healthcare', 'commercial.health_and_beauty', 'commercial.health_and_beauty.pharmacy', 'healthcare', 'healthcare.pharmacy']",80134,39.53315585,-104.79277145
291,Saddle Rock Institute,"['building', 'building.healthcare', 'healthcare', 'healthcare.dentist']",80016,39.583468249999996,-104.72208778609135
292,Complete Care Chiropractic,"['healthcare', 'healthcare.clinic_or_praxis']",80026,39.9873737,-105.107114
293,Upstander Chiropractics,['healthcare'],80027,39.9873403,-105.1300226
294,"Alan Reisman, DDS","['healthcare', 'healthcare.dentist']",80027,39.9877498,-105.1295984
295,The Dental Shoppe,"['healthcare', 'healthcare.dentist']",80026,39.9996439,-105.1036773
296,Safeway,"['commercial.health_and_beauty', 'commercial.health_and_beauty.pharmacy', 'healthcare', 'healthcare.pharmacy']",80228,39.6814936,-105.122759
297,Target Pharmacy,"['commercial.health_and_beauty', 'commercial.health_and_beauty.pharmacy', 'healthcare', 'healthcare.pharmacy']",80016,39.5916874,-104.8039715
298,King Soopers Pharmacy,"['commercial.health_and_beauty', 'commercial.health_and_beauty.pharmacy', 'healthcare', 'healthcare.pharmacy']",80016,39.6004404,-104.8027262
299,King Soopers Pharmacy,"['commercial.health_and_beauty', 'commercial.health_and_beauty.pharmacy', 'healthcare', 'healthcare.pharmacy']",,39.8862506,-104.8121533
300,"Medicine Man Medical Market, LLC","['commercial.health_and_beauty', 'commercial.health_and_beauty.pharmacy', 'healthcare', 'healthcare.pharmacy']",80246,39.7084346,-104.9304801
301,King Soopers Pharmacy,"['commercial.health_and_beauty', 'commercial.health_and_beauty.pharmacy', 'healthcare', 'healthcare.pharmacy']",80246,39.7082009,-104.9320813
302,"CK Counseling, LLC",['healthcare'],80111,39.6140214,-104.8973913
303,Rocky Mountain Urgent Care,"['healthcare', 'healthcare.clinic_or_praxis']",80022,39.884798,-104.7747016
304,Reunion Dental Care,"['healthcare', 'healthcare.dentist']",80022,39.8848023,-104.7749736
305,Walgreens,"['commercial.health_and_beauty', 'commercial.health_and_beauty.pharmacy', 'healthcare', 'healthcare.pharmacy']",80010,39.7406522,-104.865046
306,Walmart Pharmacy,"['commercial.health_and_beauty', 'commercial.health_and_beauty.pharmacy', 'healthcare', 'healthcare.pharmacy']",80012,39.7022533,-104.825611
307,Walgreens,"['commercial.health_and_beauty', 'commercial.health_and_beauty.pharmacy', 'healthcare', 'healthcare.pharmacy']",80113,39.6534896,-104.9819758
308,Swedish Cancer Care Center,"['healthcare', 'healthcare.clinic_or_praxis']",80113,39.6533017,-104.9784539
309,CVS Pharmacy,"['commercial.health_and_beauty', 'commercial.health_and_beauty.pharmacy', 'healthcare', 'healthcare.pharmacy']",80110,39.6503698,-105.006124
310,"Indian Tree Chiropractic, P.C.","['healthcare', 'healthcare.clinic_or_praxis']",80003,39.8395665,-105.0807
311,Rutledge Psychiatry,"['healthcare', 'healthcare.clinic_or_praxis', 'healthcare.clinic_or_praxis.psychiatry']",80127,39.5686517,-105.112855
312,Saint Joseph Hospital Cancer Centers of Colorado,"['healthcare', 'healthcare.clinic_or_praxis']",80218,39.745379,-104.9728574
313,Rodeo Dental,"['healthcare', 'healthcare.dentist']",80012,39.696171,-104.8126526
314,"Dental, Vision & <something>","['healthcare', 'healthcare.dentist']",80212,39.769736,-105.0554944
315,Littleton Foot and Ankle Clinic,"['healthcare', 'healthcare.clinic_or_praxis']",80127,39.5666361,-105.1111902
316,Safeway,"['commercial.health_and_beauty', 'commercial.health_and_beauty.pharmacy', 'healthcare', 'healthcare.pharmacy']",80211,39.7554718,-105.024523
317,North Suburban Medical Center - Northwest ER,"['healthcare', 'healthcare.clinic_or_praxis']",80020,39.900272,-105.0540542
318,Chiropractor,['healthcare'],80011,39.7417114,-104.8111067
319,Perfect Teeth,"['healthcare', 'healthcare.dentist']",80020,39.9130767,-105.0710155
320,Kid's Dental,"['healthcare', 'healthcare.dentist']",80220,39.7404181,-104.8961541
321,Holistic Bodyworks LLC,['healthcare'],80212,39.7721142,-105.043866
322,Redd Orthodontics,"['healthcare', 'healthcare.dentist', 'healthcare.dentist.orthodontics']",80126,39.546156,-104.9445396
323,Highlands Ranch Dental Group,"['healthcare', 'healthcare.dentist']",80126,39.5461954,-104.9444916
324,Safeway,"['commercial.health_and_beauty', 'commercial.health_and_beauty.pharmacy', 'healthcare', 'healthcare.pharmacy']",80211,39.7763492,-105.036768
325,Health Unit,"['healthcare', 'healthcare.hospital']",80225,39.7173623,-105.116451
326,Integrated Ear Nose and Throat,"['healthcare', 'healthcare.clinic_or_praxis']",80124,39.5318365,-104.874437
327,Greenwood Chiropractic Clinic,['healthcare'],80121,39.6078351,-104.959425
328,Perfect Teeth,"['healthcare', 'healthcare.dentist']",80249,39.7850228,-104.7691892
329,Metro Urgent Care,"['healthcare', 'healthcare.clinic_or_praxis']",80012,39.6860615,-104.868583
330,Dr Jay Megard OD,"['healthcare', 'healthcare.clinic_or_praxis']",80224,39.7018572,-104.9123851
331,MetroUrgent Care,"['healthcare', 'healthcare.clinic_or_praxis']",80224,39.7017979,-104.9117953
332,Smile Doctors Braces,"['healthcare', 'healthcare.dentist', 'healthcare.dentist.orthodontics']",80126,39.5456051,-104.9475856
333,Highlands Ranch Smiles,"['healthcare', 'healthcare.dentist']",80126,39.5442314,-104.9467291
334,Premier Chiropractic & Natural Medicine,"['healthcare', 'wheelchair', 'wheelchair.yes']",80126,39.5251236,-104.940831
335,Rock Canyon Dental Care,"['healthcare', 'healthcare.dentist', 'wheelchair', 'wheelchair.yes']",80130,39.5258824,-104.939998
336,PinPoint Wellness,['healthcare'],80026,39.9876116,-105.1075121
337,Great Looks Dentist,"['healthcare', 'healthcare.dentist']",80247,39.7077039,-104.874709
338,Heritage Dental,"['healthcare', 'healthcare.dentist']",80122,39.5664487,-104.921697
339,CSL Plasma,['healthcare'],80004,39.814088,-105.1304889
340,Highlands Ranch Dental,"['healthcare', 'healthcare.dentist']",80126,39.5423267,-104.9454138
341,City Center Dental Group,"['healthcare', 'healthcare.dentist']",80110,39.6546795,-104.996252
342,Amplify Chiropractic,['healthcare'],80123,39.6150152,-105.0963778
343,Metro Urgent Care,"['healthcare', 'healthcare.clinic_or_praxis']",80023,39.9573372,-105.0375716
344,National Jewish Health Highlands Ranch,"['healthcare', 'healthcare.clinic_or_praxis', 'internet_access']",80130,39.5597282,-104.9081482
345,Kings Soopers,"['commercial.health_and_beauty', 'commercial.health_and_beauty.pharmacy', 'healthcare', 'healthcare.pharmacy']",80027,39.988136,-105.124417
346,Walgreens,"['commercial.health_and_beauty', 'commercial.health_and_beauty.pharmacy', 'healthcare', 'healthcare.pharmacy']",80249,39.7831061,-104.770853
347,KidsFirst Pediatrics,"['healthcare', 'healthcare.clinic_or_praxis']",80226,39.7181855,-105.0811202
348,CareNow Urgent Care,"['healthcare', 'healthcare.clinic_or_praxis']",80235,39.6382689,-105.0822226
349,AFC Urgent Care Denver Five Points,"['healthcare', 'healthcare.clinic_or_praxis']",80205,39.76190696771457,-104.97335352959055
350,SCL Health Family Medicine,"['healthcare', 'healthcare.clinic_or_praxis']",80026,39.9668517,-105.0894572
351,Walgreens,"['commercial.health_and_beauty', 'commercial.health_and_beauty.pharmacy', 'healthcare', 'healthcare.pharmacy']",80134,39.5360676,-104.768735
352,Walmart Pharmacy,"['commercial.health_and_beauty', 'commercial.health_and_beauty.pharmacy', 'healthcare', 'healthcare.pharmacy']",80110,39.6559212,-104.9954331
353,Otto Chiropractic,['healthcare'],80015,39.6402855,-104.7909871
354,Caraway Orthodontics,"['healthcare', 'healthcare.dentist', 'healthcare.dentist.orthodontics']",80027,39.9880528,-105.1330715
355,Louisville Dental Associates,"['healthcare', 'healthcare.dentist']",80027,39.9880086,-105.1332325
356,MD Accident & Injury Center,['healthcare'],80017,39.6957815,-104.8124249
357,Centennial Medical Center,"['healthcare', 'healthcare.clinic_or_praxis']",80112,39.5924158,-104.8474807
358,Comfort Dental,"['healthcare', 'healthcare.dentist']",80260,39.8841517,-105.022894
359,The Denver Hospice,['healthcare'],80031,39.8620859,-105.0519774
360,Northview Dental,"['healthcare', 'healthcare.dentist']",80031,39.8620254,-105.0520789
361,Concentra,"['healthcare', 'healthcare.clinic_or_praxis']",80239,39.7652207,-104.8105764
362,Hilltop Dental Group,"['healthcare', 'healthcare.dentist']",80246,39.7088884,-104.9283344
363,Risas Dental and Braces,"['healthcare', 'healthcare.dentist', 'healthcare.dentist.orthodontics']",80010,39.7403803,-104.854352
364,Family Medicine,"['healthcare', 'healthcare.clinic_or_praxis']",80012,39.6958673,-104.837465
365,Aurora Family Dentistry,"['healthcare', 'healthcare.dentist']",80011,39.739232,-104.8279259
366,Lowry modern dentistry,"['healthcare', 'healthcare.dentist']",80230,39.7176676,-104.9042243
367,Ladner Facial Plastic Surgery,"['healthcare', 'healthcare.clinic_or_praxis']",80111,39.6232625,-104.893742
368,"Dr. Michele M. Orchard, D.C.",['healthcare'],80017,39.7063164,-104.8093449
369,Veros Health,"['healthcare', 'healthcare.clinic_or_praxis']",80015,39.6315772,-104.8086285
370,Eye Envy Vision,['healthcare'],80017,39.7035812,-104.7898569
371,Block Buster,"['building', 'building.healthcare', 'healthcare', 'healthcare.dentist']",80026,40.01631545,-105.10029665843422
372,Walgreens,"['building', 'building.commercial', 'building.healthcare', 'commercial', 'commercial.chemist', 'commercial.health_and_beauty', 'commercial.health_and_beauty.pharmacy', 'healthcare', 'healthcare.pharmacy']",80126,39.545850349999995,-104.94487438404886
373,Thornton Medical Center,"['building', 'building.healthcare', 'healthcare', 'healthcare.clinic_or_praxis']",80233,39.91651185,-104.97279876130705
374,Walgreens,"['building', 'building.commercial', 'building.healthcare', 'commercial.health_and_beauty', 'commercial.health_and_beauty.pharmacy', 'healthcare', 'healthcare.pharmacy']",80233,39.913351750000004,-104.97728730468992
375,Kaiser Permanente,"['building', 'building.healthcare', 'healthcare', 'healthcare.clinic_or_praxis']",80004,39.78266725,-105.13956225436802
376,My Kid's Dentist,"['building', 'building.healthcare', 'healthcare', 'healthcare.dentist']",80027,39.957356950000005,-105.16951384670924
377,Walgreens,"['building', 'building.commercial', 'building.healthcare', 'commercial.health_and_beauty', 'commercial.health_and_beauty.pharmacy', 'healthcare', 'healthcare.pharmacy', 'wheelchair', 'wheelchair.yes']",80130,39.5284386,-104.94112836910978
378,Golden Kids Dental & Orthodontics,"['building', 'building.commercial', 'building.healthcare', 'healthcare', 'healthcare.dentist']",80401,39.746432999999996,-105.20901871433261
379,Southlands Physicians,"['building', 'building.healthcare', 'healthcare', 'healthcare.clinic_or_praxis']",80016,39.60641555,-104.71186363378825
380,Walgreens,"['building', 'building.commercial', 'building.healthcare', 'commercial.health_and_beauty', 'commercial.health_and_beauty.pharmacy', 'healthcare', 'healthcare.pharmacy']",80016,39.59646035,-104.70549364968817
381,Comfort Dental,"['building', 'building.healthcare', 'healthcare', 'healthcare.dentist']",80401,39.7405336,-105.19773707635134
382,Fresenius Kidney Care,"['building', 'building.healthcare', 'healthcare', 'healthcare.clinic_or_praxis']",80238,39.7670345,-104.89936464097684
383,Children's Medicaid Dental,"['building', 'building.healthcare', 'healthcare', 'healthcare.dentist']",80226,39.69520885,-105.08112883508474
384,Alameda Chiropractic Care,"['building', 'building.healthcare', 'healthcare']",80232,39.69422405,-105.08125841040822
385,Perfect Teeth,"['building', 'building.healthcare', 'healthcare', 'healthcare.dentist']",80232,39.6818893,-105.08576111100842
386,Walgreens,"['building', 'building.commercial', 'building.healthcare', 'commercial.health_and_beauty', 'commercial.health_and_beauty.pharmacy', 'healthcare', 'healthcare.pharmacy']",80219,39.689053799999996,-105.02573543691669
387,Planned Parenthood Park Hill Health Center,"['building', 'building.healthcare', 'healthcare', 'healthcare.clinic_or_praxis']",80207,39.7697973,-104.9048516091384
388,Concentra Urgent Care,"['building', 'building.healthcare', 'healthcare', 'healthcare.clinic_or_praxis']",80216,39.8013806,-104.98198036004703
389,Avantara Crown Point,"['building', 'building.healthcare', 'healthcare']",80138,39.549848999999995,-104.76590946589286
390,Kidney Center of Arvada,"['building', 'building.healthcare', 'healthcare', 'healthcare.clinic_or_praxis']",80002,39.7921972,-105.07882026732378
391,AFC Urgent Care,"['building', 'building.healthcare', 'building.office', 'healthcare', 'healthcare.clinic_or_praxis']",80114,39.59471205,-104.896544
392,Corson Dentistry,"['building', 'building.commercial', 'building.healthcare', 'building.office', 'healthcare', 'healthcare.dentist']",80134,39.5469421,-104.77401764791125
393,Centennial Peaks Hospital,"['building', 'building.healthcare', 'healthcare', 'healthcare.clinic_or_praxis.psychiatry', 'healthcare.hospital']",80027,39.9520439,-105.14832888548915
394,Healing Way,"['building', 'building.healthcare', 'building.office', 'healthcare', 'healthcare.clinic_or_praxis']",80224,39.6534099,-104.90792468889164
395,Cherry Hills Dental,"['building', 'building.healthcare', 'building.office', 'healthcare', 'healthcare.dentist']",80224,39.6539103,-104.90909467634489
396,Platte Valley Medical Offices,"['building', 'building.healthcare', 'healthcare', 'healthcare.clinic_or_praxis']",80603,39.96385595,-104.76859075045002
397,Walgreens,"['building', 'building.commercial', 'building.healthcare', 'commercial.health_and_beauty', 'commercial.health_and_beauty.pharmacy', 'healthcare', 'healthcare.pharmacy']",80262,39.7398959,-104.92659280032115
398,Walgreens,"['building', 'building.commercial', 'building.healthcare', 'commercial.health_and_beauty', 'commercial.health_and_beauty.pharmacy', 'healthcare', 'healthcare.pharmacy']",80602,39.943560899999994,-104.94109978727403
399,Walgreens,"['building', 'building.commercial', 'building.healthcare', 'commercial.health_and_beauty', 'commercial.health_and_beauty.pharmacy', 'healthcare', 'healthcare.pharmacy']",80020,39.91302098285595,-105.05280527290847
400,Parkside-Your Healing Place,"['building', 'building.healthcare', 'building.office', 'healthcare', 'healthcare.clinic_or_praxis']",80224,39.65260575,-104.90646045
401,Tamarac Wellness Center,"['building', 'building.healthcare', 'building.office', 'healthcare', 'healthcare.clinic_or_praxis', 'wheelchair', 'wheelchair.limited']",80224,39.6526725,-104.90606654999999
402,Collier Hospice Center,"['building', 'building.healthcare', 'healthcare']",80003,39.762776650000006,-105.09006616628056
403,Dragon's Den,"['building', 'building.healthcare', 'healthcare']",80113,39.6508867,-104.97694948590426
404,Apollonian Dental Building,"['building', 'building.healthcare', 'building.office', 'healthcare', 'healthcare.dentist']",80012,39.71083765,-104.84767285222046
405,,"['building', 'building.healthcare', 'healthcare', 'healthcare.clinic_or_praxis']",80012,39.7045617,-104.8170654168356
406,Comfort Dental,"['building', 'building.commercial', 'building.healthcare', 'healthcare', 'healthcare.dentist']",80016,39.6092067,-104.8109302211669
407,Walgreens,"['building', 'building.commercial', 'building.healthcare', 'commercial.health_and_beauty', 'commercial.health_and_beauty.pharmacy', 'healthcare', 'healthcare.pharmacy']",80234,39.92803165,-105.01619174972174
408,Walgreens,"['building', 'building.commercial', 'building.healthcare', 'commercial.health_and_beauty', 'commercial.health_and_beauty.pharmacy', 'healthcare', 'healthcare.pharmacy']",80128,39.56681205,-105.08018515564537
409,Synergy Aesthetics & Wellness,"['building', 'building.healthcare', 'healthcare', 'healthcare.clinic_or_praxis']",80134,39.52634,-104.77172277326987
410,Christine Theroux DDS,"['building', 'building.healthcare', 'healthcare', 'healthcare.dentist']",80134,39.52005815,-104.77135140372778
411,MD Aesthetics and body Sculpting,"['building', 'building.healthcare', 'healthcare', 'healthcare.clinic_or_praxis']",80134,39.5350229,-104.7712081125448
412,Broomfield Family Practice,"['building', 'building.commercial', 'building.healthcare', 'healthcare', 'healthcare.clinic_or_praxis']",80020,39.921921499999996,-105.0864649020993
413,Comfort Dental,"['building', 'building.healthcare', 'building.office', 'healthcare', 'healthcare.dentist']",80226,39.7106469,-105.07253527482948
414,Kaiser Permanente Rock Creek,"['building', 'building.healthcare', 'healthcare', 'healthcare.clinic_or_praxis']",80026,39.9694794,-105.08623526534566
415,Avista Medical Center,"['building', 'building.healthcare', 'healthcare', 'healthcare.clinic_or_praxis']",80027,39.9515113,-105.15253182942061
416,Boulder Medical Center,"['building', 'building.healthcare', 'healthcare', 'healthcare.clinic_or_praxis']",80027,39.951114849999996,-105.15279044470468
417,Northeast Emergency Room Campus,"['healthcare', 'healthcare.hospital']",80602,39.927592149999995,-104.92323478366131
418,Kaiser Permanente,"['building', 'building.healthcare', 'healthcare', 'healthcare.clinic_or_praxis']",80234,39.9019071,-104.99757989541976
419,Colorado Mental Health Institute-Fort Logan,"['healthcare', 'healthcare.hospital']",80236,39.641285,-105.034208
420,Denver West Surgery Center,"['healthcare', 'healthcare.hospital']",80410,39.7464202,-105.1529788
421,VA Clinic,"['building', 'building.healthcare', 'healthcare', 'healthcare.clinic_or_praxis']",80401,39.73386715,-105.19902541697961
422,Arvada Smiles Dentistry,"['building', 'building.healthcare', 'healthcare', 'healthcare.dentist']",80002,39.79085765000001,-105.07931665208986
423,Walgreens,"['building', 'building.commercial', 'building.healthcare', 'commercial.health_and_beauty', 'commercial.health_and_beauty.pharmacy', 'healthcare', 'healthcare.pharmacy']",80219,39.71082615,-105.02458909874912
424,CareNow Urgent Care - Aurora,"['building', 'building.commercial', 'building.healthcare', 'healthcare', 'healthcare.clinic_or_praxis']",80015,39.6147658,-104.81496385328376
425,Cornerstar Healthcare Plaza,"['building', 'building.healthcare', 'healthcare', 'healthcare.clinic_or_praxis']",80016,39.59077675,-104.8005347831313
426,Walgreens,"['building', 'building.commercial', 'building.healthcare', 'commercial.health_and_beauty', 'commercial.health_and_beauty.pharmacy', 'healthcare', 'healthcare.pharmacy']",80015,39.62531615,-104.7907081025619
427,Emergency One Urgent Care,"['building', 'building.healthcare', 'healthcare', 'healthcare.clinic_or_praxis']",80020,39.900262299999994,-105.054051531439
428,Broomfield Dental Group,"['building', 'building.healthcare', 'healthcare', 'healthcare.dentist']",80020,39.9322262,-105.08839005953979
429,UCHealth Primary Care,"['building', 'building.commercial', 'building.healthcare', 'healthcare', 'healthcare.clinic_or_praxis', 'healthcare.clinic_or_praxis.general']",80020,39.9339711,-105.09002817477975
430,Advanced Urgent Care & Occupational Medicine,"['building', 'building.healthcare', 'healthcare', 'healthcare.clinic_or_praxis']",80020,39.933337300000005,-105.0897177289855
431,Family Dentistry,"['building', 'building.healthcare', 'healthcare', 'healthcare.dentist']",80020,39.9314818,-105.09024382098661
432,Family Medicine Associates,"['building', 'building.healthcare', 'healthcare', 'healthcare.clinic_or_praxis']",80020,39.9293782,-105.09363182116122
433,Exempla Northwest Medical Center,"['building', 'building.healthcare', 'healthcare', 'healthcare.clinic_or_praxis']",80020,39.916890300000006,-105.05624953583941
434,Chiro Now!,"['building', 'building.healthcare', 'healthcare', 'healthcare.clinic_or_praxis']",80020,39.915318049999996,-105.05592787390282
435,Golden Vision Clinic,"['building', 'building.healthcare', 'healthcare']",80401,39.74762665,-105.21034510000001
436,Panorama Orthopedics And Spine Center,"['building', 'building.healthcare', 'healthcare', 'healthcare.clinic_or_praxis.orthopaedics']",80401,39.72821385,-105.20591842893263
437,Stonegate Dental Care,"['building', 'building.healthcare', 'healthcare', 'healthcare.dentist']",80134,39.53510795,-104.7949744832647
438,King Soopers Pharmacy,"['commercial.health_and_beauty', 'commercial.health_and_beauty.pharmacy', 'healthcare', 'healthcare.pharmacy']",80026,40.0016475,-105.1011846
439,Kaiser Permanente Medical Offices,"['building', 'building.healthcare', 'healthcare', 'healthcare.clinic_or_praxis']",80138,39.53416815,-104.76545456457654
440,Orthodontic Smilemaker,"['building', 'building.healthcare', 'healthcare', 'healthcare.dentist']",80134,39.52583165,-104.76551996798307
441,Centura Thornton,"['building', 'building.healthcare', 'healthcare', 'healthcare.clinic_or_praxis']",80614,39.929006900000005,-104.93944475370152
442,Elite Foot & Ankle Clinic,"['building', 'building.healthcare', 'healthcare', 'healthcare.clinic_or_praxis']",80233,39.8861986,-104.9434558891407
443,Walmart Pharmacy,"['commercial.health_and_beauty', 'commercial.health_and_beauty.pharmacy', 'healthcare', 'healthcare.pharmacy']",80127,39.6077971,-105.150985
444,UCHealth Urgent Care,"['building', 'building.healthcare', 'healthcare', 'healthcare.clinic_or_praxis']",80602,39.9434621,-104.94198053124245
445,Walgreens,"['commercial.health_and_beauty', 'commercial.health_and_beauty.pharmacy', 'healthcare', 'healthcare.pharmacy']",80228,39.6817376,-105.1184364
446,Walgreens,"['commercial.health_and_beauty', 'commercial.health_and_beauty.pharmacy', 'healthcare', 'healthcare.pharmacy']",80215,39.7611733,-105.1414947
447,Colorado Prostate Cancer Center,"['healthcare', 'healthcare.hospital']",80237,39.6209848,-104.89843731271125
448,Comfort Dental,"['building', 'building.healthcare', 'healthcare', 'healthcare.dentist']",80260,39.864245,-104.9972661016883
449,Colorado Center for Reproductive Medicine,"['building', 'building.healthcare', 'healthcare']",80124,39.529012677926644,-104.87540261705169
450,Wimmer Dental,"['healthcare', 'healthcare.dentist']",80121,39.5947589,-104.926553
451,Walgreens,"['commercial.health_and_beauty', 'commercial.health_and_beauty.pharmacy', 'healthcare', 'healthcare.pharmacy']",80114,39.5812166,-104.8848746
452,Walgreens,"['building', 'building.commercial', 'building.healthcare', 'commercial.health_and_beauty', 'commercial.health_and_beauty.pharmacy', 'healthcare', 'healthcare.pharmacy']",80030,39.8278873,-105.0259659879901
453,Kaiser Permanente,"['healthcare', 'healthcare.clinic_or_praxis']",80113,39.663021,-104.988
454,Walgreens,"['commercial.health_and_beauty', 'commercial.health_and_beauty.pharmacy', 'healthcare', 'healthcare.pharmacy']",80123,39.6246949,-105.0199759
455,Brent R Hoggan Orthodontist,"['healthcare', 'healthcare.dentist']",80138,39.5322007,-104.766204
456,Comfort Dental,"['building', 'building.healthcare', 'healthcare', 'healthcare.dentist']",80233,39.8919689,-104.97721784475505
457,Walgreens,"['commercial.health_and_beauty', 'commercial.health_and_beauty.pharmacy', 'healthcare', 'healthcare.pharmacy']",80127,39.6103423,-105.1090172
458,Denver Drug and Liquor,"['commercial.health_and_beauty', 'commercial.health_and_beauty.pharmacy', 'healthcare', 'healthcare.pharmacy']",80203,39.7398953,-104.9821673
459,Avella Specialty Pharmacy,"['commercial.health_and_beauty', 'commercial.health_and_beauty.pharmacy', 'healthcare', 'healthcare.pharmacy']",80218,39.7402339,-104.9711799
460,Office Bldg,"['healthcare', 'healthcare.clinic_or_praxis']",80110,39.6508267,-104.98261
461,Miramont Family Medicine,"['building', 'building.healthcare', 'healthcare', 'healthcare.clinic_or_praxis']",80134,39.5487766,-104.77708131320756
462,Denali Dental,"['building', 'building.healthcare', 'healthcare', 'healthcare.dentist']",80233,39.9033879,-104.97830929469026
463,UCHealth Urgent Care,"['building', 'building.healthcare', 'healthcare', 'healthcare.clinic_or_praxis']",80249,39.7832684,-104.76927064382434
464,Thompson Facial Plastics,"['building', 'building.healthcare', 'healthcare', 'healthcare.clinic_or_praxis']",80206,39.72083445,-104.95005497254554
465,Comfort Dental,"['building', 'building.healthcare', 'healthcare', 'healthcare.dentist']",80016,39.5953092,-104.702564
466,Kaiser Permanente Aurora Centrepoint Medical Offices,"['healthcare', 'healthcare.clinic_or_praxis']",80012,39.70457915,-104.8172795372219
467,Aurora Comprehensive Community Mental Health Center,"['building', 'building.healthcare', 'healthcare']",80011,39.72754745,-104.81097429552982
468,Walgreens,"['building', 'building.commercial', 'building.healthcare', 'commercial.health_and_beauty', 'commercial.health_and_beauty.pharmacy', 'healthcare', 'healthcare.pharmacy']",80014,39.65271505,-104.80895377002885
469,Risas Dental,"['building', 'building.healthcare', 'healthcare', 'healthcare.dentist']",80014,39.65174625,-104.81054765162466
470,Walgreens,"['building', 'building.commercial', 'building.healthcare', 'commercial.health_and_beauty', 'commercial.health_and_beauty.pharmacy', 'healthcare', 'healthcare.pharmacy']",80017,39.67532545,-104.80913499933555
471,460th/140th Medical Clinic,"['building', 'building.healthcare', 'healthcare']",80017,39.71147965,-104.7732463549143
472,Fresenius Kidney Care,"['building', 'building.healthcare', 'healthcare', 'healthcare.clinic_or_praxis']",80011,39.72501025,-104.79997946436399
473,Centura Health Primary Care,"['building', 'building.healthcare', 'healthcare', 'healthcare.clinic_or_praxis']",80401,39.72966805,-105.21039067835844
474,Centura Health Emergency & Urgent Care,"['building', 'building.healthcare', 'healthcare', 'healthcare.clinic_or_praxis']",80401,39.73010845,-105.21107511653892
475,UCHealth Highlands Ranch Hospital,"['healthcare', 'healthcare.hospital']",80129,39.5523953,-105.00585026799914
476,Walgreens,"['commercial.health_and_beauty', 'commercial.health_and_beauty.pharmacy', 'healthcare', 'healthcare.pharmacy']",80228,39.6990612,-105.1421459
477,Peoples Pharmacy,"['commercial.health_and_beauty', 'commercial.health_and_beauty.pharmacy', 'healthcare', 'healthcare.pharmacy']",80228,39.7198086,-105.1336668
478,Swedish Southwest ER,"['building', 'building.healthcare', 'healthcare', 'healthcare.clinic_or_praxis']",80123,39.60295485,-105.09011662414034
479,Comfort Dental,"['building', 'building.healthcare', 'healthcare', 'healthcare.dentist']",80215,39.7544078,-105.10914560039296
480,Brighton Eye Associates,"['building', 'building.healthcare', 'healthcare', 'healthcare.clinic_or_praxis.general']",80601,39.987025200000005,-104.80981902657481
481,Thrive Chiropractic and Wellness,"['building', 'building.healthcare', 'healthcare']",80601,39.986412650000005,-104.80730765849114
482,Rocky Mountain Fertility Center,"['building', 'building.healthcare', 'healthcare', 'healthcare.clinic_or_praxis']",80134,39.53691775,-104.8414989155597
483,Walgreens,"['building', 'building.commercial', 'building.healthcare', 'commercial.health_and_beauty', 'commercial.health_and_beauty.pharmacy', 'healthcare', 'healthcare.pharmacy']",80246,39.69590155,-104.94106545
484,Erie Modern Dentistry,"['building', 'building.healthcare', 'healthcare', 'healthcare.dentist']",80516,40.0006869,-105.01044008572087
485,Walgreens,"['commercial.health_and_beauty', 'commercial.health_and_beauty.pharmacy', 'healthcare', 'healthcare.pharmacy']",80004,39.8121505,-105.12901
486,Gardens on Quail Rehabilitation and Memory Care,"['building', 'building.healthcare', 'healthcare', 'healthcare.clinic_or_praxis.general']",80004,39.8145746,-105.12485126894407
487,Walgreens,"['commercial.health_and_beauty', 'commercial.health_and_beauty.pharmacy', 'healthcare', 'healthcare.pharmacy', 'wheelchair', 'wheelchair.yes']",80202,39.7460901,-104.9930568
488,premier allergy & asthma,"['building', 'building.healthcare', 'healthcare', 'healthcare.clinic_or_praxis']",80015,39.615716750000004,-104.76389686212629
489,AFC Walk-In Clinic and Urgent Care,"['building', 'building.healthcare', 'healthcare', 'healthcare.clinic_or_praxis', 'healthcare.clinic_or_praxis.general']",80016,39.58142145,-104.72424957256106
490,UCHealth Lone Tree Medical Center,"['building', 'building.healthcare', 'healthcare']",80124,39.55294995,-104.8784437865427
491,CareNow Urgent Care - Central Park,"['building', 'building.healthcare', 'healthcare', 'healthcare.clinic_or_praxis']",80010,39.7602561,-104.8661798
492,SCL Health Medical Group,"['building', 'building.healthcare', 'healthcare', 'healthcare.clinic_or_praxis']",80249,39.7847491,-104.77477605
493,Kidney Center of Lakewood,"['building', 'building.healthcare', 'healthcare', 'healthcare.clinic_or_praxis']",80226,39.7105075,-105.06425766146184
494,Smoky Hill Medical Offices,"['building', 'building.healthcare', 'healthcare', 'healthcare.clinic_or_praxis']",80015,39.63792065,-104.80011650029758
495,Bright Star Kids Dentistry,"['building', 'building.healthcare', 'healthcare', 'healthcare.dentist']",80022,39.885121749999996,-104.81042727863507
496,UCHealth Emergency Room,"['building', 'building.healthcare', 'healthcare', 'healthcare.clinic_or_praxis']",80022,39.88494785,-104.81172029940757
497,Walgreens,"['commercial.health_and_beauty', 'commercial.health_and_beauty.pharmacy', 'healthcare', 'healthcare.pharmacy']",80246,39.7103419,-104.9395383
498,Comfort Dental,"['building', 'building.healthcare', 'healthcare', 'healthcare.dentist']",80003,39.84148905,-105.05288762500001
499,Walgreens,"['commercial.health_and_beauty', 'commercial.health_and_beauty.pharmacy', 'healthcare', 'healthcare.pharmacy']",80007,39.8117562,-105.169879
